{
  "type": "FeatureCollection",
  "units": {
    "height": "FT",
    "distance": "NM (nautical miles)",
    "airspeed": "kt (NM/h)"
  },
  "features": [
    {
      "type": "Feature",
      "properties": {
        "id": "DONGSHA",
        "name_zh": "東沙群島",
        "name_en": "Dongsha (Pratas) Island",
        "type": "限航區",
        "upper_limit": "5000 FT AMSL",
        "lower_limit": "SFC",
        "upper_limit_ft": 5000,
        "lower_limit_ft": 0,
        "radius_nm": 10,
        "contact": "",
        "remarks_zh": "晝夜連續限航,不定期舉行地對空炮火射擊,航機需先申請獲准方可進入。位於香港飛航情報區內。H24。"
      },
      "geometry": {
        "type": "Point",
        "coordinates": [
          116.716667,
          20.7
        ]
      }
    },
    {
      "type": "Feature",
      "properties": {
        "id": "NANSHA",
        "name_zh": "南沙群島",
        "name_en": "Nansha Island",
        "type": "限航區",
        "upper_limit": "6000 FT AMSL",
        "lower_limit": "SFC",
        "upper_limit_ft": 6000,
        "lower_limit_ft": 0,
        "radius_nm": 10,
        "contact": "",
        "remarks_zh": "晝夜連續限航,不定期舉行地對空炮火射擊,航機需先申請獲准方可進入。位於馬尼拉飛航情報區內。H24。"
      },
      "geometry": {
        "type": "Point",
        "coordinates": [
          114.383333,
          10.383333
        ]
      }
    },
    {
      "type": "Feature",
      "properties": {
        "id": "RCR5",
        "name_zh": "",
        "name_en": "",
        "type": "限航區",
        "upper_limit": "FL370",
        "lower_limit": "SFC",
        "upper_limit_ft": 37000,
        "lower_limit_ft": 0,
        "radius_nm": null,
        "contact": "886-2-27321594",
        "remarks_zh": "空軍作戰指揮部(886-2-27321594)。天氣能見度5KM,雲幕高1500FT(含)或以上。晝夜連續限航。"
      },
      "geometry": {
        "type": "Polygon",
        "coordinates": [
          [
            [
              118.9,
              23.85
            ],
            [
              119.25,
              23.566667
            ],
            [
              118.383333,
              23.066667
            ],
            [
              118.216667,
              23.133333
            ],
            [
              118.9,
              23.85
            ]
          ]
        ]
      }
    },
    {
      "type": "Feature",
      "properties": {
        "id": "RCR6",
        "name_zh": "佳冬",
        "name_en": "Jiadong",
        "type": "限航區",
        "upper_limit": "12000 FT AMSL",
        "lower_limit": "SFC",
        "upper_limit_ft": 12000,
        "lower_limit_ft": 0,
        "radius_nm": 5,
        "contact": "886-8-7654632",
        "remarks_zh": "空軍第六混合聯隊(886-8-7654632)。限航時段:每日2300-0200,0600-0900UTC。"
      },
      "geometry": {
        "type": "Point",
        "coordinates": [
          120.591389,
          22.448333
        ]
      }
    },
    {
      "type": "Feature",
      "properties": {
        "id": "RCR8",
        "name_zh": "",
        "name_en": "",
        "type": "限航區",
        "upper_limit": "FL370",
        "lower_limit": "SFC",
        "upper_limit_ft": 37000,
        "lower_limit_ft": 0,
        "radius_nm": null,
        "contact": "886-2-27321594",
        "remarks_zh": "空軍作戰指揮部(886-2-27321594)。晝夜連續限航。"
      },
      "geometry": {
        "type": "Polygon",
        "coordinates": [
          [
            [
              122.333333,
              27.333333
            ],
            [
              122.716667,
              27.333333
            ],
            [
              121.866667,
              26.3
            ],
            [
              121.366667,
              26.3
            ],
            [
              122.333333,
              27.333333
            ]
          ]
        ]
      }
    },
    {
      "type": "Feature",
      "properties": {
        "id": "RCR9",
        "name_zh": "",
        "name_en": "",
        "type": "限航區",
        "upper_limit": "FL370",
        "lower_limit": "SFC",
        "upper_limit_ft": 37000,
        "lower_limit_ft": 0,
        "radius_nm": null,
        "contact": "886-2-27321594",
        "remarks_zh": "空軍作戰指揮部(886-2-27321594)。晝夜連續限航。"
      },
      "geometry": {
        "type": "Polygon",
        "coordinates": [
          [
            [
              120.8,
              25.8
            ],
            [
              121.333333,
              25.8
            ],
            [
              120.383333,
              24.866667
            ],
            [
              119.916667,
              24.866667
            ],
            [
              120.8,
              25.8
            ]
          ]
        ]
      }
    },
    {
      "type": "Feature",
      "properties": {
        "id": "RCR11",
        "name_zh": "",
        "name_en": "",
        "type": "限航區",
        "upper_limit": "FL370",
        "lower_limit": "SFC",
        "upper_limit_ft": 37000,
        "lower_limit_ft": 0,
        "radius_nm": null,
        "contact": "886-2-27321594",
        "remarks_zh": "空軍作戰指揮部(886-2-27321594)。晝夜連續限航。"
      },
      "geometry": {
        "type": "Polygon",
        "coordinates": [
          [
            [
              119.833333,
              24.8
            ],
            [
              120.333333,
              24.8
            ],
            [
              119.45,
              23.916667
            ],
            [
              119.133333,
              24.166667
            ],
            [
              119.833333,
              24.8
            ]
          ]
        ]
      }
    },
    {
      "type": "Feature",
      "properties": {
        "id": "RCR12",
        "name_zh": "",
        "name_en": "",
        "type": "限航區",
        "upper_limit": "FL290",
        "lower_limit": "SFC",
        "upper_limit_ft": 29000,
        "lower_limit_ft": 0,
        "radius_nm": null,
        "contact": "886-2-27321594",
        "remarks_zh": "空軍作戰指揮部(886-2-27321594)。晝夜連續限航。"
      },
      "geometry": {
        "type": "Polygon",
        "coordinates": [
          [
            [
              118.916667,
              22.566667
            ],
            [
              119.65,
              22.983333
            ],
            [
              119.616667,
              22.266667
            ],
            [
              118.916667,
              22.35
            ],
            [
              118.916667,
              22.566667
            ]
          ]
        ]
      }
    },
    {
      "type": "Feature",
      "properties": {
        "id": "RCR16",
        "name_zh": "陽明山",
        "name_en": "Yangmingshan",
        "type": "限航區",
        "upper_limit": "4000 FT AMSL",
        "lower_limit": "SFC",
        "upper_limit_ft": 4000,
        "lower_limit_ft": 0,
        "radius_nm": null,
        "contact": "886-2-27321594",
        "remarks_zh": "空軍作戰指揮部(886-2-27321594)。晝夜連續限航。除事先獲得空軍作戰指揮部准許外,任何航空器不得航行。"
      },
      "geometry": {
        "type": "Polygon",
        "coordinates": [
          [
            [
              121.525,
              25.165
            ],
            [
              121.583333,
              25.165
            ],
            [
              121.583333,
              25.076111
            ],
            [
              121.550278,
              25.076111
            ],
            [
              121.525,
              25.083889
            ],
            [
              121.525,
              25.165
            ]
          ]
        ]
      }
    },
    {
      "type": "Feature",
      "properties": {
        "id": "RCR17",
        "name_zh": "",
        "name_en": "",
        "type": "限航區",
        "upper_limit": "FL370",
        "lower_limit": "SFC",
        "upper_limit_ft": 37000,
        "lower_limit_ft": 0,
        "radius_nm": null,
        "contact": "886-3-8232069",
        "remarks_zh": "空軍第五戰術混合聯隊(886-3-8232069)。日出至日沒限航。"
      },
      "geometry": {
        "type": "Polygon",
        "coordinates": [
          [
            [
              122.083333,
              23.716667
            ],
            [
              122.633333,
              23.716667
            ],
            [
              122.633333,
              23.333333
            ],
            [
              122.083333,
              23
            ],
            [
              122.083333,
              23.716667
            ]
          ]
        ]
      }
    },
    {
      "type": "Feature",
      "properties": {
        "id": "RCR18A",
        "name_zh": "",
        "name_en": "",
        "type": "限航區",
        "upper_limit": "FL180",
        "lower_limit": "SFC",
        "upper_limit_ft": 18000,
        "lower_limit_ft": 0,
        "radius_nm": null,
        "contact": "886-7-5883753",
        "remarks_zh": "海軍教育訓練暨準則發展指揮部(886-7-5883753)。限航時段:週一至週五0000-0900UTC。"
      },
      "geometry": {
        "type": "Polygon",
        "coordinates": [
          [
            [
              119.424722,
              22.581667
            ],
            [
              119.424722,
              22.915
            ],
            [
              119.758056,
              22.915
            ],
            [
              119.758056,
              22.581667
            ],
            [
              119.424722,
              22.581667
            ]
          ]
        ]
      }
    },
    {
      "type": "Feature",
      "properties": {
        "id": "RCR18B",
        "name_zh": "",
        "name_en": "",
        "type": "限航區",
        "upper_limit": "FL400",
        "lower_limit": "FL181",
        "upper_limit_ft": 40000,
        "lower_limit_ft": 18100,
        "radius_nm": null,
        "contact": "886-7-5883753",
        "remarks_zh": "海軍教育訓練暨準則發展指揮部(886-7-5883753)。發布飛航公告後實施。"
      },
      "geometry": {
        "type": "Polygon",
        "coordinates": [
          [
            [
              119.424722,
              22.581667
            ],
            [
              119.424722,
              22.915
            ],
            [
              119.758056,
              22.915
            ],
            [
              119.758056,
              22.581667
            ],
            [
              119.424722,
              22.581667
            ]
          ]
        ]
      }
    },
    {
      "type": "Feature",
      "properties": {
        "id": "RCR22",
        "name_zh": "",
        "name_en": "",
        "type": "限航區",
        "upper_limit": "2000 FT AMSL",
        "lower_limit": "SFC",
        "upper_limit_ft": 2000,
        "lower_limit_ft": 0,
        "radius_nm": null,
        "contact": "886-3-5973902",
        "remarks_zh": "陸軍裝甲兵訓練指揮部(886-3-5973902)。發布飛航公告後實施。"
      },
      "geometry": {
        "type": "Polygon",
        "coordinates": [
          [
            [
              120.9,
              24.933333
            ],
            [
              120.933333,
              24.933333
            ],
            [
              120.969444,
              24.869444
            ],
            [
              120.916667,
              24.875
            ],
            [
              120.883333,
              24.875
            ],
            [
              120.9,
              24.933333
            ]
          ]
        ]
      }
    },
    {
      "type": "Feature",
      "properties": {
        "id": "RCR25",
        "name_zh": "",
        "name_en": "",
        "type": "限航區",
        "upper_limit": "4000 FT AMSL",
        "lower_limit": "SFC",
        "upper_limit_ft": 4000,
        "lower_limit_ft": 0,
        "radius_nm": null,
        "contact": "886-2-24260951",
        "remarks_zh": "海軍131艦隊(886-2-24260951)。限航時段:週一至週五0000-0900UTC。"
      },
      "geometry": {
        "type": "Polygon",
        "coordinates": [
          [
            [
              122.008333,
              25.465
            ],
            [
              122.008333,
              25.331667
            ],
            [
              122.208333,
              25.331667
            ],
            [
              122.208333,
              25.465
            ],
            [
              122.008333,
              25.465
            ]
          ]
        ]
      }
    },
    {
      "type": "Feature",
      "properties": {
        "id": "RCR27",
        "name_zh": "",
        "name_en": "",
        "type": "限航區",
        "upper_limit": "1000 FT AMSL",
        "lower_limit": "SFC",
        "upper_limit_ft": 1000,
        "lower_limit_ft": 0,
        "radius_nm": null,
        "contact": "886-7-5883753",
        "remarks_zh": "海軍教育訓練暨準則發展指揮部(886-7-5883753)。發布飛航公告後實施。"
      },
      "geometry": {
        "type": "Polygon",
        "coordinates": [
          [
            [
              120.274722,
              22.648333
            ],
            [
              120.091389,
              22.715
            ],
            [
              120.258056,
              22.715
            ],
            [
              120.274722,
              22.648333
            ]
          ]
        ]
      }
    },
    {
      "type": "Feature",
      "properties": {
        "id": "RCR30",
        "name_zh": "大福",
        "name_en": "Dafu",
        "type": "限航區",
        "upper_limit": "5000 FT AMSL",
        "lower_limit": "SFC",
        "upper_limit_ft": 5000,
        "lower_limit_ft": 0,
        "radius_nm": null,
        "contact": "886-3-9306873",
        "remarks_zh": "軍備局規格鑑測中心兵器試驗場(886-3-9306873)。週二至週五實施。"
      },
      "geometry": {
        "type": "Polygon",
        "coordinates": [
          [
            [
              121.816667,
              24.8
            ],
            [
              121.833333,
              24.833333
            ],
            [
              121.916667,
              24.833333
            ],
            [
              121.916667,
              24.666667
            ],
            [
              121.833333,
              24.7
            ],
            [
              121.816667,
              24.733333
            ],
            [
              121.816667,
              24.8
            ]
          ]
        ]
      }
    },
    {
      "type": "Feature",
      "properties": {
        "id": "RCR34",
        "name_zh": "枋山",
        "name_en": "Fangshan",
        "type": "限航區",
        "upper_limit": "FL240",
        "lower_limit": "SFC",
        "upper_limit_ft": 24000,
        "lower_limit_ft": 0,
        "radius_nm": 10,
        "contact": "886-8-8720780",
        "remarks_zh": "國軍防空砲兵部隊訓練中心(886-8-8720780轉7755313~6)。發布飛航公告後實施。"
      },
      "geometry": {
        "type": "Polygon",
        "coordinates": [
          [
            [
              120.4575,
              22.366388888888892
            ],
            [
              120.457249,
              22.366457
            ],
            [
              120.455589,
              22.360869
            ],
            [
              120.454139,
              22.35523
            ],
            [
              120.452903,
              22.349549
            ],
            [
              120.451882,
              22.343831
            ],
            [
              120.451076,
              22.338084
            ],
            [
              120.450487,
              22.332314
            ],
            [
              120.450115,
              22.326529
            ],
            [
              120.449962,
              22.320735
            ],
            [
              120.450026,
              22.31494
            ],
            [
              120.450308,
              22.30915
            ],
            [
              120.450807,
              22.303373
            ],
            [
              120.451524,
              22.297616
            ],
            [
              120.452456,
              22.291885
            ],
            [
              120.453604,
              22.286188
            ],
            [
              120.454964,
              22.280531
            ],
            [
              120.456537,
              22.274921
            ],
            [
              120.458319,
              22.269365
            ],
            [
              120.460309,
              22.26387
            ],
            [
              120.462504,
              22.258443
            ],
            [
              120.464902,
              22.253089
            ],
            [
              120.467499,
              22.247816
            ],
            [
              120.470293,
              22.242629
            ],
            [
              120.47328,
              22.237535
            ],
            [
              120.476456,
              22.232541
            ],
            [
              120.479817,
              22.227652
            ],
            [
              120.483361,
              22.222874
            ],
            [
              120.487081,
              22.218213
            ],
            [
              120.490974,
              22.213675
            ],
            [
              120.495035,
              22.209264
            ],
            [
              120.499259,
              22.204987
            ],
            [
              120.503641,
              22.200849
            ],
            [
              120.508176,
              22.196854
            ],
            [
              120.512857,
              22.193007
            ],
            [
              120.51768,
              22.189313
            ],
            [
              120.522639,
              22.185777
            ],
            [
              120.527727,
              22.182403
            ],
            [
              120.532939,
              22.179194
            ],
            [
              120.538268,
              22.176155
            ],
            [
              120.543708,
              22.173289
            ],
            [
              120.549252,
              22.170601
            ],
            [
              120.554893,
              22.168092
            ],
            [
              120.560625,
              22.165766
            ],
            [
              120.566441,
              22.163626
            ],
            [
              120.572333,
              22.161675
            ],
            [
              120.578295,
              22.159914
            ],
            [
              120.584319,
              22.158347
            ],
            [
              120.590399,
              22.156974
            ],
            [
              120.596526,
              22.155797
            ],
            [
              120.602693,
              22.154819
            ],
            [
              120.608894,
              22.15404
            ],
            [
              120.61512,
              22.153461
            ],
            [
              120.621364,
              22.153082
            ],
            [
              120.627618,
              22.152905
            ],
            [
              120.633876,
              22.152929
            ],
            [
              120.640128,
              22.153154
            ],
            [
              120.646369,
              22.153581
            ],
            [
              120.652589,
              22.154208
            ],
            [
              120.658783,
              22.155035
            ],
            [
              120.664941,
              22.15606
            ],
            [
              120.671058,
              22.157284
            ],
            [
              120.677125,
              22.158703
            ],
            [
              120.683135,
              22.160317
            ],
            [
              120.63,
              22.319444444444443
            ],
            [
              120.4575,
              22.366388888888892
            ]
          ]
        ]
      }
    },
    {
      "type": "Feature",
      "properties": {
        "id": "RCR38",
        "name_zh": "水溪",
        "name_en": "Shueisi",
        "type": "限航區",
        "upper_limit": "FL150",
        "lower_limit": "SFC",
        "upper_limit_ft": 15000,
        "lower_limit_ft": 0,
        "radius_nm": 5,
        "contact": "886-5-2854087",
        "remarks_zh": "空軍第四戰術戰鬥機聯隊(886-5-2854087)。晝夜連續限航。"
      },
      "geometry": {
        "type": "Polygon",
        "coordinates": [
          [
            [
              120.18333333333334,
              23.42888888888889
            ],
            [
              120.183281,
              23.428962
            ],
            [
              120.18062,
              23.427401
            ],
            [
              120.177903,
              23.425927
            ],
            [
              120.175131,
              23.42454
            ],
            [
              120.172308,
              23.423243
            ],
            [
              120.169437,
              23.422036
            ],
            [
              120.166523,
              23.420922
            ],
            [
              120.163569,
              23.419901
            ],
            [
              120.160577,
              23.418975
            ],
            [
              120.157552,
              23.418146
            ],
            [
              120.154498,
              23.417413
            ],
            [
              120.151418,
              23.416778
            ],
            [
              120.148315,
              23.416241
            ],
            [
              120.145195,
              23.415804
            ],
            [
              120.142059,
              23.415467
            ],
            [
              120.138913,
              23.41523
            ],
            [
              120.135759,
              23.415093
            ],
            [
              120.132603,
              23.415057
            ],
            [
              120.129446,
              23.415122
            ],
            [
              120.126295,
              23.415287
            ],
            [
              120.123151,
              23.415553
            ],
            [
              120.120019,
              23.415919
            ],
            [
              120.116903,
              23.416385
            ],
            [
              120.113807,
              23.41695
            ],
            [
              120.110734,
              23.417613
            ],
            [
              120.107687,
              23.418374
            ],
            [
              120.104672,
              23.419231
            ],
            [
              120.101691,
              23.420185
            ],
            [
              120.098747,
              23.421232
            ],
            [
              120.095845,
              23.422373
            ],
            [
              120.092988,
              23.423606
            ],
            [
              120.09018,
              23.424929
            ],
            [
              120.087423,
              23.426341
            ],
            [
              120.084721,
              23.42784
            ],
            [
              120.082078,
              23.429425
            ],
            [
              120.079496,
              23.431093
            ],
            [
              120.076979,
              23.432842
            ],
            [
              120.07453,
              23.43467
            ],
            [
              120.072152,
              23.436575
            ],
            [
              120.069847,
              23.438555
            ],
            [
              120.067618,
              23.440608
            ],
            [
              120.065469,
              23.44273
            ],
            [
              120.063401,
              23.444919
            ],
            [
              120.061418,
              23.447174
            ],
            [
              120.059521,
              23.44949
            ],
            [
              120.057713,
              23.451865
            ],
            [
              120.055996,
              23.454296
            ],
            [
              120.054372,
              23.456781
            ],
            [
              120.052843,
              23.459316
            ],
            [
              120.051412,
              23.461898
            ],
            [
              120.050079,
              23.464524
            ],
            [
              120.048846,
              23.467191
            ],
            [
              120.047715,
              23.469896
            ],
            [
              120.046688,
              23.472636
            ],
            [
              120.045765,
              23.475406
            ],
            [
              120.044947,
              23.478205
            ],
            [
              120.044236,
              23.481027
            ],
            [
              120.043633,
              23.483871
            ],
            [
              120.043137,
              23.486732
            ],
            [
              120.042751,
              23.489607
            ],
            [
              120.042473,
              23.492493
            ],
            [
              120.042306,
              23.495386
            ],
            [
              120.042248,
              23.498282
            ],
            [
              120.0423,
              23.501179
            ],
            [
              120.042462,
              23.504072
            ],
            [
              120.042733,
              23.506958
            ],
            [
              120.043114,
              23.509834
            ],
            [
              120.043604,
              23.512696
            ],
            [
              120.044202,
              23.515541
            ],
            [
              120.044907,
              23.518365
            ],
            [
              120.04572,
              23.521164
            ],
            [
              120.046638,
              23.523936
            ],
            [
              120.04766,
              23.526677
            ],
            [
              120.048786,
              23.529384
            ],
            [
              120.050014,
              23.532053
            ],
            [
              120.051343,
              23.534682
            ],
            [
              120.052771,
              23.537266
            ],
            [
              120.054296,
              23.539804
            ],
            [
              120.055916,
              23.542291
            ],
            [
              120.05763,
              23.544725
            ],
            [
              120.059435,
              23.547103
            ],
            [
              120.061329,
              23.549421
            ],
            [
              120.06331,
              23.551678
            ],
            [
              120.065376,
              23.553871
            ],
            [
              120.067524,
              23.555996
            ],
            [
              120.069751,
              23.558051
            ],
            [
              120.072055,
              23.560034
            ],
            [
              120.074432,
              23.561943
            ],
            [
              120.076881,
              23.563774
            ],
            [
              120.079398,
              23.565527
            ],
            [
              120.08198,
              23.567197
            ],
            [
              120.084624,
              23.568785
            ],
            [
              120.087326,
              23.570287
            ],
            [
              120.090084,
              23.571702
            ],
            [
              120.092895,
              23.573029
            ],
            [
              120.095753,
              23.574264
            ],
            [
              120.098657,
              23.575408
            ],
            [
              120.101603,
              23.576459
            ],
            [
              120.104587,
              23.577415
            ],
            [
              120.107605,
              23.578275
            ],
            [
              120.110654,
              23.579038
            ],
            [
              120.11373,
              23.579704
            ],
            [
              120.11683,
              23.580271
            ],
            [
              120.11995,
              23.580739
            ],
            [
              120.123085,
              23.581107
            ],
            [
              120.126232,
              23.581375
            ],
            [
              120.129388,
              23.581543
            ],
            [
              120.132548,
              23.581609
            ],
            [
              120.135709,
              23.581575
            ],
            [
              120.138866,
              23.58144
            ],
            [
              120.142017,
              23.581204
            ],
            [
              120.145156,
              23.580868
            ],
            [
              120.148281,
              23.580432
            ],
            [
              120.151388,
              23.579897
            ],
            [
              120.154472,
              23.579263
            ],
            [
              120.15753,
              23.578531
            ],
            [
              120.160559,
              23.577701
            ],
            [
              120.163554,
              23.576776
            ],
            [
              120.166513,
              23.575756
            ],
            [
              120.16943,
              23.574642
            ],
            [
              120.172304,
              23.573435
            ],
            [
              120.17513,
              23.572138
            ],
            [
              120.177905,
              23.570751
            ],
            [
              120.180626,
              23.569277
            ],
            [
              120.183289,
              23.567716
            ],
            [
              120.18333333333334,
              23.42888888888889
            ]
          ]
        ]
      }
    },
    {
      "type": "Feature",
      "properties": {
        "id": "RCR39",
        "name_zh": "",
        "name_en": "",
        "type": "限航區",
        "upper_limit": "FL400",
        "lower_limit": "SFC",
        "upper_limit_ft": 40000,
        "lower_limit_ft": 0,
        "radius_nm": null,
        "contact": "886-6-9212765",
        "remarks_zh": "海軍146艦隊(886-6-9212765)。發布飛航公告後實施。"
      },
      "geometry": {
        "type": "Polygon",
        "coordinates": [
          [
            [
              119.258056,
              23.498333
            ],
            [
              119.258056,
              23.665
            ],
            [
              119.091389,
              23.665
            ],
            [
              119.091389,
              23.498333
            ],
            [
              119.258056,
              23.498333
            ]
          ]
        ]
      }
    },
    {
      "type": "Feature",
      "properties": {
        "id": "RCR40",
        "name_zh": "小蘭嶼",
        "name_en": "Hsiao Lanyu",
        "type": "限航區",
        "upper_limit": "FL140",
        "lower_limit": "SFC",
        "upper_limit_ft": 14000,
        "lower_limit_ft": 0,
        "radius_nm": 0.864,
        "contact": "886-89-228411",
        "remarks_zh": "空軍第七飛行訓練聯隊(886-89-228411)。從每月15日1600UTC至月底,除去3月及4月。"
      },
      "geometry": {
        "type": "Point",
        "coordinates": [
          121.608056,
          21.948056
        ]
      }
    },
    {
      "type": "Feature",
      "properties": {
        "id": "RCR41",
        "name_zh": "太麻里",
        "name_en": "Taimali",
        "type": "限航區",
        "upper_limit": "FL140",
        "lower_limit": "SFC",
        "upper_limit_ft": 14000,
        "lower_limit_ft": 0,
        "radius_nm": 5,
        "contact": "886-89-228411",
        "remarks_zh": "空軍第七飛行訓練聯隊(886-89-228411)。限航時段:每天2230-0400,0530-0900UTC。"
      },
      "geometry": {
        "type": "Point",
        "coordinates": [
          121.008056,
          22.598333
        ]
      }
    },
    {
      "type": "Feature",
      "properties": {
        "id": "RCR42",
        "name_zh": "恆春A區",
        "name_en": "Hengchun A",
        "type": "限航區",
        "upper_limit": "FL370",
        "lower_limit": "SFC",
        "upper_limit_ft": 37000,
        "lower_limit_ft": 0,
        "radius_nm": null,
        "contact": "886-2-27321594",
        "remarks_zh": "空軍作戰指揮部(886-2-27321594)。日出至日沒限航。"
      },
      "geometry": {
        "type": "Polygon",
        "coordinates": [
          [
            [
              122.008056,
              22.448056
            ],
            [
              122.008056,
              21.548056
            ],
            [
              121.674722,
              21.698056
            ],
            [
              121.674722,
              22.248056
            ],
            [
              122.008056,
              22.448056
            ]
          ]
        ]
      }
    },
    {
      "type": "Feature",
      "properties": {
        "id": "RCR43",
        "name_zh": "恆春B區",
        "name_en": "Hengchun B",
        "type": "限航區",
        "upper_limit": "FL370",
        "lower_limit": "SFC",
        "upper_limit_ft": 37000,
        "lower_limit_ft": 0,
        "radius_nm": null,
        "contact": "886-2-27321594",
        "remarks_zh": "空軍作戰指揮部(886-2-27321594)。日出至日沒限航。"
      },
      "geometry": {
        "type": "Polygon",
        "coordinates": [
          [
            [
              121.024722,
              21.598056
            ],
            [
              121.641389,
              21.281389
            ],
            [
              121.458056,
              21.081389
            ],
            [
              120.991389,
              21.081389
            ],
            [
              121.024722,
              21.598056
            ]
          ]
        ]
      }
    },
    {
      "type": "Feature",
      "properties": {
        "id": "RCR45",
        "name_zh": "",
        "name_en": "第三核能發電廠",
        "type": "限航區",
        "upper_limit": "3000 FT AMSL",
        "lower_limit": "SFC",
        "upper_limit_ft": 3000,
        "lower_limit_ft": 0,
        "radius_nm": 2,
        "contact": "886-8-8881685",
        "remarks_zh": "台電(886-8-8881685)(第三核能發電廠)。晝夜連續限航。"
      },
      "geometry": {
        "type": "Point",
        "coordinates": [
          120.75,
          21.95
        ]
      }
    },
    {
      "type": "Feature",
      "properties": {
        "id": "RCR46",
        "name_zh": "",
        "name_en": "第一核能發電廠",
        "type": "限航區",
        "upper_limit": "3000 FT AMSL",
        "lower_limit": "SFC",
        "upper_limit_ft": 3000,
        "lower_limit_ft": 0,
        "radius_nm": 2,
        "contact": "886-2-26383520",
        "remarks_zh": "台電(886-2-26383520)(第一核能發電廠)。晝夜連續限航。"
      },
      "geometry": {
        "type": "Point",
        "coordinates": [
          121.583333,
          25.283333
        ]
      }
    },
    {
      "type": "Feature",
      "properties": {
        "id": "RCR47",
        "name_zh": "",
        "name_en": "第二核能發電廠",
        "type": "限航區",
        "upper_limit": "3000 FT AMSL",
        "lower_limit": "SFC",
        "upper_limit_ft": 3000,
        "lower_limit_ft": 0,
        "radius_nm": 2,
        "contact": "886-2-24082546",
        "remarks_zh": "台電(886-2-24082546)(第二核能發電廠)。晝夜連續限航。"
      },
      "geometry": {
        "type": "Point",
        "coordinates": [
          121.65,
          25.2
        ]
      }
    },
    {
      "type": "Feature",
      "properties": {
        "id": "RCR48",
        "name_zh": "",
        "name_en": "總統府",
        "type": "限航區",
        "upper_limit": "4000 FT AMSL",
        "lower_limit": "SFC",
        "upper_limit_ft": 4000,
        "lower_limit_ft": 0,
        "radius_nm": null,
        "contact": "886-2-23206851",
        "remarks_zh": "總統府侍衛室(886-2-23206851)。晝夜連續限航。任何航空器未經核准不得進入。"
      },
      "geometry": {
        "type": "Polygon",
        "coordinates": [
          [
            [
              121.518889,
              25.048611
            ],
            [
              121.5025,
              25.043056
            ],
            [
              121.509444,
              25.030556
            ],
            [
              121.523889,
              25.035278
            ],
            [
              121.518889,
              25.048611
            ]
          ]
        ]
      }
    },
    {
      "type": "Feature",
      "properties": {
        "id": "RCR50",
        "name_zh": "",
        "name_en": "",
        "type": "限航區",
        "upper_limit": "FL200",
        "lower_limit": "SFC",
        "upper_limit_ft": 20000,
        "lower_limit_ft": 0,
        "radius_nm": 2.7,
        "contact": "886-2-27321594",
        "remarks_zh": "空軍作戰指揮部(886-2-27321594)。晝夜連續限航。任何航空器未經核准不得進入。"
      },
      "geometry": {
        "type": "Point",
        "coordinates": [
          121.071389,
          24.498056
        ]
      }
    },
    {
      "type": "Feature",
      "properties": {
        "id": "RCR7U",
        "name_zh": "石礁(上層圓形區)",
        "name_en": "Shihjiao (Upper Circle)",
        "type": "限航區",
        "upper_limit": "FL150",
        "lower_limit": "SFC",
        "upper_limit_ft": 15000,
        "lower_limit_ft": 0,
        "radius_nm": 2.6,
        "contact": "886-5-2854087",
        "remarks_zh": "空軍第四戰術戰鬥機聯隊(886-5-2854087)。空軍作戰指揮部(886-2-27321594)。天氣能見度5KM,雲幕高1500FT(含)或以上。晝夜連續限航。半徑2.6NM圓形區,原RCR7上層部分。"
      },
      "geometry": {
        "type": "Point",
        "coordinates": [
          119.3425,
          23.305
        ]
      }
    },
    {
      "type": "Feature",
      "properties": {
        "id": "RCR7D",
        "name_zh": "石礁(外環扇形區)",
        "name_en": "Shihjiao (Outer Sector)",
        "type": "限航區",
        "upper_limit": "4000 FT AMSL",
        "lower_limit": "SFC",
        "upper_limit_ft": 4000,
        "lower_limit_ft": 0,
        "radius_nm": null,
        "contact": "886-5-2854087",
        "remarks_zh": "空軍第四戰術戰鬥機聯隊(886-5-2854087)。空軍作戰指揮部(886-2-27321594)。天氣能見度5KM,雲幕高1500FT(含)或以上。晝夜連續限航。原RCR7外環扇形部分(2.6NM至6.5NM半徑間)。"
      },
      "geometry": {
        "type": "Polygon",
        "coordinates": [
          [
            [
              119.3425,
              23.348333
            ],
            [
              119.334307,
              23.347675
            ],
            [
              119.326362,
              23.34572
            ],
            [
              119.318909,
              23.342528
            ],
            [
              119.312171,
              23.338195
            ],
            [
              119.306356,
              23.332854
            ],
            [
              119.301638,
              23.326667
            ],
            [
              119.298163,
              23.319821
            ],
            [
              119.296034,
              23.312525
            ],
            [
              119.295317,
              23.305
            ],
            [
              119.296034,
              23.297475
            ],
            [
              119.298163,
              23.290179
            ],
            [
              119.301638,
              23.283333
            ],
            [
              119.306356,
              23.277146
            ],
            [
              119.312171,
              23.271805
            ],
            [
              119.318909,
              23.267472
            ],
            [
              119.326362,
              23.26428
            ],
            [
              119.334307,
              23.262325
            ],
            [
              119.3425,
              23.261667
            ],
            [
              119.3425,
              23.196667
            ],
            [
              119.322017,
              23.198312
            ],
            [
              119.302156,
              23.2032
            ],
            [
              119.283521,
              23.211181
            ],
            [
              119.266679,
              23.222012
            ],
            [
              119.25214,
              23.235365
            ],
            [
              119.240346,
              23.250833
            ],
            [
              119.231656,
              23.267948
            ],
            [
              119.226335,
              23.286188
            ],
            [
              119.224543,
              23.305
            ],
            [
              119.226335,
              23.323812
            ],
            [
              119.231656,
              23.342052
            ],
            [
              119.240346,
              23.359167
            ],
            [
              119.25214,
              23.374635
            ],
            [
              119.266679,
              23.387988
            ],
            [
              119.283521,
              23.398819
            ],
            [
              119.302156,
              23.4068
            ],
            [
              119.322017,
              23.411688
            ],
            [
              119.3425,
              23.413333
            ],
            [
              119.3425,
              23.348333
            ]
          ]
        ]
      }
    }
  ]
}
